BEESAT-4                
1 41619U 16040W   23063.87172031  .00067874  00000+0  14644-2 0  9997
2 41619  97.1779 113.6985 0005773 248.0816 111.9820 15.44303228360695
RAVAN                   
1 41849U 16067B   23063.36295716  .00018235  00000+0  13261-2 0  9992
2 41849  98.0200 213.6533 0017182 180.3589 179.7626 15.03763963345006
CELTEE 1                
1 41850U 16067C   23063.35869596  .00010028  00000+0  80423-3 0  9993
2 41850  98.0358 207.7355 0004837 212.4431 147.6494 15.00305064344696
OPTICUBE 04             
1 41851U 16067D   23063.36306634  .00005517  00000+0  46050-3 0  9999
2 41851  98.0289 206.3646 0007379 189.4488 170.6596 14.98969381344623
AEROCUBE 8D             
1 41852U 16067E   23063.35050936  .00012058  00000+0  96200-3 0  9990
2 41852  98.0336 206.6844 0004442 209.1391 150.9584 15.00453833344634
AEROCUBE 8C             
1 41853U 16067F   23063.33667598  .00011972  00000+0  95630-3 0  9997
2 41853  98.0236 206.4394 0007185 155.2741 204.8828 15.00396604344620
PROMETHEUS 2-1          
1 41854U 16067G   23063.34673741  .00020709  00000+0  15343-2 0  9996
2 41854  98.0506 208.6282 0018251 208.8686 151.1530 15.03016336344729
PROMETHEUS 2-3          
1 41855U 16067H   23063.33861494  .00019616  00000+0  14560-2 0  9995
2 41855  98.0435 208.5919 0015487 217.0805 142.9350 15.02998286344720
INS-1B                  
1 41954U 17008G   23063.92522790  .00059705  00000+0  13170-2 0  9998
2 41954  97.2185 124.4718 0005106  29.7785 330.3753 15.43685071336729
DIDO-2                  
1 42000U 17008BE  23063.65507989  .00034246  00000+0  10146-2 0  9997
2 42000  97.2194 121.6457 0007336  59.4682 300.7285 15.34757669335873
PEASSS                  
1 42015U 17008BV  23063.89962049  .00053365  00000+0  12487-2 0  9994
2 42015  97.2257 127.6923 0004242  52.4255 307.7378 15.41951407336735
AL-FARABI 1             
1 42016U 17008BW  23063.63829938  .00105624  00000+0  18061-2 0  9996
2 42016  97.2316 132.5210 0002113  46.1018 314.0408 15.50896332337098
NAYIF-1 (EO-88)         
1 42017U 17008BX  23063.67688180  .00094443  00000+0  15880-2 0  9995
2 42017  97.2298 132.6390 0002577  43.4533 316.6922 15.51412771337130
UCLSAT                  
1 42765U 17036A   23063.86567944  .00052264  00000+0  12862-2 0  9993
2 42765  97.1612 104.2376 0009330 108.9203 251.3056 15.40395071317764
LITUANICASAT-2          
1 42768U 17036D   23063.87949018  .00395796  00000+0  29540-2 0  9994
2 42768  97.1620 111.9310 0004219  93.7233 266.4513 15.71565300317486
AALTO-1                 
1 42775U 17036L   23063.66783637  .00028700  00000+0  95234-3 0  9994
2 42775  97.1677  96.9528 0012870 117.6124 242.6426 15.31117929316503
URSA MAIOR              
1 42776U 17036M   23063.90423483  .00029227  00000+0  93275-3 0  9990
2 42776  97.1685  98.2611 0012366 114.9714 245.2815 15.32374373316595
COMPASS 2               
1 42777U 17036N   23063.68464853  .00107113  00000+0  18255-2 0  9997
2 42777  97.1657 108.3358 0007648  96.2436 263.9688 15.50957716317163
DIAMOND RED             
1 42783U 17036U   23063.60557898  .00037055  00000+0  11045-2 0  9995
2 42783  97.1676 100.9020 0010603 118.0844 242.1473 15.34518901316729
PEGASUS                 
1 42784U 17036V   23063.67593516  .00048213  00000+0  12702-2 0  9999
2 42784  97.1655 102.9231 0009957 112.1536 248.0767 15.38320789316861
DIAMOND GREEN           
1 42785U 17036W   23063.85161232  .00036786  00000+0  10821-2 0  9998
2 42785  97.1673 101.2416 0010541 119.2414 240.9885 15.34938322316836
DIAMOND BLUE            
1 42786U 17036X   23064.05183351  .00034137  00000+0  10094-2 0  9998
2 42786  97.1675 101.4182 0010538 117.4596 242.7721 15.34790943316786
NUDTSAT                 
1 42787U 17036Y   23064.16331415  .00143869  00000+0  21405-2 0  9998
2 42787  97.1625 110.6919 0005911 105.6022 254.5886 15.54622965317238
SUCHAI                  
1 42788U 17036Z   23063.66435571  .00076198  00000+0  17109-2 0  9997
2 42788  97.1641 105.5938 0008782 106.8539 253.3673 15.43057716317107
SKCUBE                  
1 42789U 17036AA  23063.67858179  .00052779  00000+0  12857-2 0  9996
2 42789  97.1643 104.5920 0009098 108.5053 251.7183 15.40704371316965
VZLUSAT-1               
1 42790U 17036AB  23063.64511267  .00146505  00000+0  22534-2 0  9993
2 42790  97.1614 110.0235 0006356  99.7943 260.4029 15.53693356317296
ROBUSTA 1B              
1 42792U 17036AD  23063.68282964  .00059814  00000+0  13783-2 0  9990
2 42792  97.1633 105.4806 0008473 108.0925 252.1246 15.42355617317031
CICERO 6                
1 42793U 17036AE  23063.61856094  .00031654  00000+0  97195-3 0  9997
2 42793  97.1662 101.2671 0009553 117.9326 242.2886 15.33621615316844
CORVUS BC2              
1 42846U 17042X   23063.53959958  .00005695  00000+0  53887-3 0  9993
2 42846  97.3965 270.8261 0008477 195.9567 164.1389 14.93984786307099
CORVUS BC1              
1 42847U 17042Y   23063.53733618  .00005458  00000+0  51545-3 0  9993
2 42847  97.3964 271.1678 0008227 194.1740 165.9251 14.94079357307101
MIRATA                  
1 43015U 17073C   23063.93970500  .00023233  00000+0  15316-2 0  9998
2 43015  97.6483 314.9105 0223094  41.9993 319.8091 14.89276592285953
MAKERSAT 0              
1 43016U 17073D   23063.63649679  .00018719  00000+0  12962-2 0  9993
2 43016  97.6487 313.3381 0235336  50.3195 311.8517 14.85891214285772
CORVUS BC3              
1 43118U 18004H   23064.12424876  .00032262  00000+0  99305-3 0  9992
2 43118  97.3338 138.9008 0008816 152.9758 207.1945 15.33547394286065
MICROMAS-2A             
1 43131U 18004W   23063.81127082  .00303282  00000+0  25313-2 0  9991
2 43131  97.3407 151.9500 0002845 203.2145 156.8988 15.69129058286794
CICERO 7                
1 43143U 18004AJ  23063.70005629  .00048134  00000+0  10289-2 0  9992
2 43143  97.3499 148.3802 0005601 144.2851 215.8773 15.44668965286576
GOMX-4B                 
1 43196U 18015E   23064.20741546  .00030690  00000+0  97891-3 0  9996
2 43196  97.5623 212.3745 0015480 214.1794 145.8452 15.32343385283006
GOMX-4A                 
1 43197U 18015F   23064.35301785  .00025201  00000+0  74281-3 0  9990
2 43197  97.5609 214.1394 0015556 210.8758 179.1064 15.34892143283145
AEROCUBE 12A            
1 43556U 18046C   23064.27631920  .00153622  00000+0  17718-2 0  9991
2 43556  51.6304 338.7085 0005107 214.8743 145.1916 15.60899215259672
AEROCUBE 12B            
1 43557U 18046D   23064.07690602  .00082308  00000+0  13160-2 0  9991
2 43557  51.6351 351.5306 0004561 221.0947 138.9700 15.52425537259431
CUBEBEL-1 (BSUSAT-1)    
1 43666U 18083E   23064.15574575  .00033778  00000+0  11199-2 0  9999
2 43666  97.3956  95.5865 0012843 126.8697 276.0436 15.31115092241240
CICERO 10               
1 43690U 18088A   23063.93642925  .00028776  00000+0  94300-3 0  9999
2 43690  85.0362 142.8149 0010337 256.9134 103.0960 15.31455234239513
PROXIMA I               
1 43694U 18088E   23063.92595816  .00031338  00000+0  96011-3 0  9997
2 43694  85.0293 138.8197 0014101 220.2375 139.7830 15.33554059239768
PROXIMA II              
1 43696U 18088G   23063.93301076  .00031404  00000+0  96432-3 0  9994
2 43696  85.0293 138.8504 0014210 220.1838 139.8361 15.33480452239761
FACSAT-1                
1 43721U 18096C   23064.09820912  .00116478  00000+0  15656-2 0  9998
2 43721  97.3192 151.0046 0009526 190.2248 254.5289 15.57450193238171
CENTAURI-2              
1 43722U 18096D   23064.18153153  .00760011  00000+0  27707-2 0  9993
2 43722  97.3216 156.3618 0008429 238.6249 121.4198 15.86606149238493
SIRION PATHFINDER-2     
1 43759U 18099B   23064.14300515  .00006832  00000+0  58482-3 0  9997
2 43759  97.5879 128.7996 0015088 104.3646 255.9253 14.97805401232044
CORVUS BC4              
1 43767U 18099K   23063.93333623  .00006994  00000+0  60816-3 0  9991
2 43767  97.5828 126.7122 0012759 110.8635 249.3955 14.97208357231927
MOVE-II                 
1 43780U 18099Y   23063.68716765  .00016099  00000+0  12567-2 0  9996
2 43780  97.5865 130.0531 0012745 138.6360 221.5832 15.01147446232040
SPACEBEE-7              
1 43816U 18099BL  23063.73231276  .00014302  00000+0  11374-2 0  9991
2 43816  97.5961 130.7403 0015725  91.2421 269.0604 15.00428760231633
SPACEBEE-5              
1 43817U 18099BM  23063.98730126  .00043315  00000+0  26872-2 0  9992
2 43817  97.6048 136.3290 0004894 100.3888 259.7892 15.09562326231935
SPACEBEE-6              
1 43818U 18099BN  23063.42741553  .00023460  00000+0  17477-2 0  9998
2 43818  97.6019 132.0871 0014222 110.3386 249.9369 15.02826939231815
SHIELDS 1               
1 43850U 18104B   23063.73566925  .00013723  00000+0  52374-3 0  9990
2 43850  85.0243 239.1939 0014441  31.3710 328.8393 15.26434637234162
STF-1                   
1 43852U 18104D   23063.75040586  .00048910  00000+0  14277-2 0  9999
2 43852  85.0242 238.2175 0012112  32.6652 327.5343 15.35055371234331
ZACUBE-2                
1 43907U 18111AH  23064.30824024  .00030383  00000+0  90567-3 0  9999
2 43907  97.1565 306.6842 0015143 225.7147 272.0541 15.34500113233180
LUME 1                  
1 43908U 18111AJ  23063.92967120  .00039034  00000+0  10060-2 0  9993
2 43908  97.1580 309.1442 0013298 212.2033 147.8402 15.39005487233315
AOBA VELOX-IV           
1 43940U 19003J   23063.81801047  .00530294  00000+0  31776-2 0  9994
2 43940  97.0841 100.2926 0006103 253.8154 106.2441 15.76337456230391
MOVE-IIB                
1 44398U 19038N   23063.75454711  .00063967  00000+0  22104-2 0  9998
2 44398  97.6568  42.4747 0013844 311.5017  48.5033 15.29597311202647
SONATE                  
1 44400U 19038Q   23063.43399316  .00018445  00000+0  89068-3 0  9990
2 44400  97.6738  39.1836 0020186 321.3403  38.6385 15.18531433202323
LUCKY-7                 
1 44406U 19038W   23063.74733908  .00027127  00000+0  12378-2 0  9995
2 44406  97.6715  40.4316 0018452 316.8809  43.0979 15.20436505202432
